CCSDS_OMM_VERS = 2.0
CREATION_DATE  = 
ORIGINATOR     = 

OBJECT_NAME    = STARLINK-36926
OBJECT_ID      = 2026-039P
CENTER_NAME    = EARTH
REF_FRAME      = TEME
TIME_SYSTEM    = UTC
MEAN_ELEMENT_THEORY = SGP/SGP4

EPOCH          = 2026-03-22T04:00:01.999584
MEAN_MOTION    = 15.50543257
ECCENTRICITY   = .00014077
INCLINATION    = 42.9999
RA_OF_ASC_NODE = 339.6811
ARG_OF_PERICENTER = 268.5082
MEAN_ANOMALY   = 235.6668

EPHEMERIS_TYPE = 0
CLASSIFICATION_TYPE = U
NORAD_CAT_ID   = 67999
ELEMENT_SET_NO = 999
REV_AT_EPOCH   = 488
BSTAR          = .61938E-3
MEAN_MOTION_DOT = .36116E-3
MEAN_MOTION_DDOT = 0

CCSDS_OMM_VERS = 2.0
CREATION_DATE  = 
ORIGINATOR     = 

OBJECT_NAME    = STARLINK-36931
OBJECT_ID      = 2026-039Q
CENTER_NAME    = EARTH
REF_FRAME      = TEME
TIME_SYSTEM    = UTC
MEAN_ELEMENT_THEORY = SGP/SGP4

EPOCH          = 2026-03-22T04:00:01.999584
MEAN_MOTION    = 15.50483808
ECCENTRICITY   = .00019952
INCLINATION    = 42.9997
RA_OF_ASC_NODE = 339.3998
ARG_OF_PERICENTER = 272.1468
MEAN_ANOMALY   = 346.0429

EPHEMERIS_TYPE = 0
CLASSIFICATION_TYPE = U
NORAD_CAT_ID   = 68000
ELEMENT_SET_NO = 999
REV_AT_EPOCH   = 488
BSTAR          = .2419459E-2
MEAN_MOTION_DOT = .143746E-2
MEAN_MOTION_DDOT = 0

CCSDS_OMM_VERS = 2.0
CREATION_DATE  = 
ORIGINATOR     = 

OBJECT_NAME    = STARLINK-36903
OBJECT_ID      = 2026-039R
CENTER_NAME    = EARTH
REF_FRAME      = TEME
TIME_SYSTEM    = UTC
MEAN_ELEMENT_THEORY = SGP/SGP4

EPOCH          = 2026-03-22T04:00:01.999584
MEAN_MOTION    = 15.50472922
ECCENTRICITY   = .00020889
INCLINATION    = 42.9999
RA_OF_ASC_NODE = 339.6677
ARG_OF_PERICENTER = 252.0285
MEAN_ANOMALY   = 257.6204

EPHEMERIS_TYPE = 0
CLASSIFICATION_TYPE = U
NORAD_CAT_ID   = 68001
ELEMENT_SET_NO = 999
REV_AT_EPOCH   = 488
BSTAR          = .26325244E-2
MEAN_MOTION_DOT = .156635E-2
MEAN_MOTION_DDOT = 0

CCSDS_OMM_VERS = 2.0
CREATION_DATE  = 
ORIGINATOR     = 

OBJECT_NAME    = STARLINK-36898
OBJECT_ID      = 2026-039S
CENTER_NAME    = EARTH
REF_FRAME      = TEME
TIME_SYSTEM    = UTC
MEAN_ELEMENT_THEORY = SGP/SGP4

EPOCH          = 2026-03-22T04:00:01.999584
MEAN_MOTION    = 15.50547211
ECCENTRICITY   = .00016685
INCLINATION    = 42.9998
RA_OF_ASC_NODE = 339.4426
ARG_OF_PERICENTER = 268.4955
MEAN_ANOMALY   = 332.2466

EPHEMERIS_TYPE = 0
CLASSIFICATION_TYPE = U
NORAD_CAT_ID   = 68002
ELEMENT_SET_NO = 999
REV_AT_EPOCH   = 488
BSTAR          = .14362027E-2
MEAN_MOTION_DOT = .84735E-3
MEAN_MOTION_DDOT = 0

CCSDS_OMM_VERS = 2.0
CREATION_DATE  = 
ORIGINATOR     = 

OBJECT_NAME    = STARLINK-36862
OBJECT_ID      = 2026-039T
CENTER_NAME    = EARTH
REF_FRAME      = TEME
TIME_SYSTEM    = UTC
MEAN_ELEMENT_THEORY = SGP/SGP4

EPOCH          = 2026-03-22T04:00:01.999584
MEAN_MOTION    = 15.50912084
ECCENTRICITY   = .00013746
INCLINATION    = 42.9996
RA_OF_ASC_NODE = 339.5624
ARG_OF_PERICENTER = 253.6725
MEAN_ANOMALY   = 297.9820

EPHEMERIS_TYPE = 0
CLASSIFICATION_TYPE = U
NORAD_CAT_ID   = 68003
ELEMENT_SET_NO = 999
REV_AT_EPOCH   = 488
BSTAR          = -.2225846E-1
MEAN_MOTION_DOT = -.1203767E-1
MEAN_MOTION_DDOT = 0

CCSDS_OMM_VERS = 2.0
CREATION_DATE  = 
ORIGINATOR     = 

OBJECT_NAME    = STARLINK-36888
OBJECT_ID      = 2026-039U
CENTER_NAME    = EARTH
REF_FRAME      = TEME
TIME_SYSTEM    = UTC
MEAN_ELEMENT_THEORY = SGP/SGP4

EPOCH          = 2026-03-22T04:00:01.999584
MEAN_MOTION    = 15.50575836
ECCENTRICITY   = .00010665
INCLINATION    = 42.9997
RA_OF_ASC_NODE = 339.6167
ARG_OF_PERICENTER = 260.9475
MEAN_ANOMALY   = 269.0154

EPHEMERIS_TYPE = 0
CLASSIFICATION_TYPE = U
NORAD_CAT_ID   = 68004
ELEMENT_SET_NO = 999
REV_AT_EPOCH   = 488
BSTAR          = -.18922397E-3
MEAN_MOTION_DOT = -.11424E-3
MEAN_MOTION_DDOT = 0

CCSDS_OMM_VERS = 2.0
CREATION_DATE  = 
ORIGINATOR     = 

OBJECT_NAME    = STARLINK-36910
OBJECT_ID      = 2026-039V
CENTER_NAME    = EARTH
REF_FRAME      = TEME
TIME_SYSTEM    = UTC
MEAN_ELEMENT_THEORY = SGP/SGP4

EPOCH          = 2026-03-22T04:00:01.999584
MEAN_MOTION    = 15.50578739
ECCENTRICITY   = .00016496
INCLINATION    = 42.9992
RA_OF_ASC_NODE = 339.3533
ARG_OF_PERICENTER = 272.4136
MEAN_ANOMALY   = 4.4873

EPHEMERIS_TYPE = 0
CLASSIFICATION_TYPE = U
NORAD_CAT_ID   = 68005
ELEMENT_SET_NO = 999
REV_AT_EPOCH   = 488
BSTAR          = -.54287303E-3
MEAN_MOTION_DOT = -.32059E-3
MEAN_MOTION_DDOT = 0

CCSDS_OMM_VERS = 2.0
CREATION_DATE  = 
ORIGINATOR     = 

OBJECT_NAME    = STARLINK-36889
OBJECT_ID      = 2026-039W
CENTER_NAME    = EARTH
REF_FRAME      = TEME
TIME_SYSTEM    = UTC
MEAN_ELEMENT_THEORY = SGP/SGP4

EPOCH          = 2026-03-22T04:00:01.999584
MEAN_MOTION    = 15.50473630
ECCENTRICITY   = .00012053
INCLINATION    = 42.9998
RA_OF_ASC_NODE = 339.6825
ARG_OF_PERICENTER = 274.7197
MEAN_ANOMALY   = 228.3224

EPHEMERIS_TYPE = 0
CLASSIFICATION_TYPE = U
NORAD_CAT_ID   = 68006
ELEMENT_SET_NO = 999
REV_AT_EPOCH   = 488
BSTAR          = .23557505E-2
MEAN_MOTION_DOT = .139829E-2
MEAN_MOTION_DDOT = 0

CCSDS_OMM_VERS = 2.0
CREATION_DATE  = 
ORIGINATOR     = 

OBJECT_NAME    = STARLINK-36592
OBJECT_ID      = 2026-039X
CENTER_NAME    = EARTH
REF_FRAME      = TEME
TIME_SYSTEM    = UTC
MEAN_ELEMENT_THEORY = SGP/SGP4

EPOCH          = 2026-03-22T04:00:01.999584
MEAN_MOTION    = 15.50485258
ECCENTRICITY   = .00015098
INCLINATION    = 42.9999
RA_OF_ASC_NODE = 339.3793
ARG_OF_PERICENTER = 267.9143
MEAN_ANOMALY   = 357.9040

EPHEMERIS_TYPE = 0
CLASSIFICATION_TYPE = U
NORAD_CAT_ID   = 68007
ELEMENT_SET_NO = 999
REV_AT_EPOCH   = 488
BSTAR          = .21458366E-2
MEAN_MOTION_DOT = .127184E-2
MEAN_MOTION_DDOT = 0

CCSDS_OMM_VERS = 2.0
CREATION_DATE  = 
ORIGINATOR     = 

OBJECT_NAME    = STARLINK-36911
OBJECT_ID      = 2026-039Y
CENTER_NAME    = EARTH
REF_FRAME      = TEME
TIME_SYSTEM    = UTC
MEAN_ELEMENT_THEORY = SGP/SGP4

EPOCH          = 2026-03-22T04:00:01.999584
MEAN_MOTION    = 15.50561321
ECCENTRICITY   = .00013435
INCLINATION    = 42.9999
RA_OF_ASC_NODE = 339.4684
ARG_OF_PERICENTER = 278.8759
MEAN_ANOMALY   = 310.5425

EPHEMERIS_TYPE = 0
CLASSIFICATION_TYPE = U
NORAD_CAT_ID   = 68008
ELEMENT_SET_NO = 999
REV_AT_EPOCH   = 488
BSTAR          = -.11215647E-3
MEAN_MOTION_DOT = -.6911E-4
MEAN_MOTION_DDOT = 0

CCSDS_OMM_VERS = 2.0
CREATION_DATE  = 
ORIGINATOR     = 

OBJECT_NAME    = STARLINK-36956
OBJECT_ID      = 2026-039Z
CENTER_NAME    = EARTH
REF_FRAME      = TEME
TIME_SYSTEM    = UTC
MEAN_ELEMENT_THEORY = SGP/SGP4

EPOCH          = 2026-03-22T04:00:01.999584
MEAN_MOTION    = 15.50489050
ECCENTRICITY   = .00019833
INCLINATION    = 43.0000
RA_OF_ASC_NODE = 339.5353
ARG_OF_PERICENTER = 255.4255
MEAN_ANOMALY   = 307.0985

EPHEMERIS_TYPE = 0
CLASSIFICATION_TYPE = U
NORAD_CAT_ID   = 68009
ELEMENT_SET_NO = 999
REV_AT_EPOCH   = 488
BSTAR          = .24284332E-2
MEAN_MOTION_DOT = .144318E-2
MEAN_MOTION_DDOT = 0

CCSDS_OMM_VERS = 2.0
CREATION_DATE  = 
ORIGINATOR     = 

OBJECT_NAME    = STARLINK-36953
OBJECT_ID      = 2026-039AA
CENTER_NAME    = EARTH
REF_FRAME      = TEME
TIME_SYSTEM    = UTC
MEAN_ELEMENT_THEORY = SGP/SGP4

EPOCH          = 2026-03-22T04:00:01.999584
MEAN_MOTION    = 15.54198221
ECCENTRICITY   = .00016245
INCLINATION    = 42.9998
RA_OF_ASC_NODE = 339.0305
ARG_OF_PERICENTER = 270.4549
MEAN_ANOMALY   = 135.9838

EPHEMERIS_TYPE = 0
CLASSIFICATION_TYPE = U
NORAD_CAT_ID   = 68010
ELEMENT_SET_NO = 999
REV_AT_EPOCH   = 488
BSTAR          = -.31063555E-1
MEAN_MOTION_DOT = -.183956E-1
MEAN_MOTION_DDOT = 0

